[
    {
        "CCSDS_OMM_VERS": "3.0",
        "COMMENT": "GENERATED VIA SPACE-TRACK.ORG API",
        "CREATION_DATE": "2025-04-14T03:05:54",
        "ORIGINATOR": "18 SPCS",
        "OBJECT_NAME": "COSMOS 2476 (GLONASS)",
        "OBJECT_ID": "2011-064A",
        "CENTER_NAME": "EARTH",
        "REF_FRAME": "TEME",
        "TIME_SYSTEM": "UTC",
        "MEAN_ELEMENT_THEORY": "SGP4",
        "EPOCH": "2025-04-13T03:53:12.251904",
        "MEAN_MOTION": "2.13101613",
        "ECCENTRICITY": "0.00243830",
        "INCLINATION": "65.0316",
        "RA_OF_ASC_NODE": "87.4151",
        "ARG_OF_PERICENTER": "242.2303",
        "MEAN_ANOMALY": "141.8069",
        "EPHEMERIS_TYPE": "0",
        "CLASSIFICATION_TYPE": "U",
        "NORAD_CAT_ID": "37867",
        "ELEMENT_SET_NO": "999",
        "REV_AT_EPOCH": "10460",
        "BSTAR": "0.00000000000000",
        "MEAN_MOTION_DOT": "0.00000021",
        "MEAN_MOTION_DDOT": "0.0000000000000",
        "SEMIMAJOR_AXIS": "25508.055",
        "PERIOD": "675.734",
        "APOAPSIS": "19192.117",
        "PERIAPSIS": "19067.724",
        "OBJECT_TYPE": "PAYLOAD",
        "RCS_SIZE": "LARGE",
        "COUNTRY_CODE": "CIS",
        "LAUNCH_DATE": "2011-11-04",
        "SITE": "TTMTR",
        "DECAY_DATE": null,
        "FILE": "4701263",
        "GP_ID": "285535717",
        "TLE_LINE0": "0 COSMOS 2476 (GLONASS)",
        "TLE_LINE1": "1 37867U 11064A   25103.16194736  .00000021  00000-0  00000-0 0  9994",
        "TLE_LINE2": "2 37867  65.0316  87.4151 0024383 242.2303 141.8069  2.13101613104604"
    }
]